[{"OBJECT_NAME":"STARLINK-11110 [DTC]","OBJECT_ID":"2024-091K","EPOCH":"2026-03-09T16:13:38.874432","MEAN_MOTION":15.69699371,"ECCENTRICITY":0.00010031,"INCLINATION":53.1593,"RA_OF_ASC_NODE":206.1499,"ARG_OF_PERICENTER":96.6302,"MEAN_ANOMALY":263.483,"EPHEMERIS_TYPE":0,"CLASSIFICATION_TYPE":"U","NORAD_CAT_ID":59762,"ELEMENT_SET_NO":999,"REV_AT_EPOCH":10551,"BSTAR":3.830092e-6,"MEAN_MOTION_DOT":-1.25e-6,"MEAN_MOTION_DDOT":0},{"OBJECT_NAME":"HORIZON (RS59S)","OBJECT_ID":"2024-199Y","EPOCH":"2026-03-09T22:30:11.638080","MEAN_MOTION":15.70291895,"ECCENTRICITY":0.00030615,"INCLINATION":97.3063,"RA_OF_ASC_NODE":307.7521,"ARG_OF_PERICENTER":244.864,"MEAN_ANOMALY":115.2305,"EPHEMERIS_TYPE":0,"CLASSIFICATION_TYPE":"U","NORAD_CAT_ID":61757,"ELEMENT_SET_NO":999,"REV_AT_EPOCH":12246,"BSTAR":0.00120059,"MEAN_MOTION_DOT":0.00148042,"MEAN_MOTION_DDOT":0}]
